KUIPER-00053            
1 64513U 25134P   25285.33335648 -.00817753  00000+0 -76394-1 0  9993
2 64513  51.8936 159.8731 0002978 167.8623 109.8672 14.96529939  5641
KUIPER-00054            
1 64514U 25134Q   25285.33335648 -.00531417  00000+0 -30614-1 0  9999
2 64514  51.8800 157.2982 0007552 154.9545 322.1924 15.14106075  1374
KUIPER-00055            
1 64515U 25134R   25284.92159897  .00023118  00000+0  10503-2 0  9992
2 64515  51.8917 158.6813 0001605 287.6596  72.4208 15.20659953 18211
KUIPER-00056            
1 64516U 25134S   25285.33335648 -.02116334  00000+0 -20173+0 0  9997
2 64516  51.8905 160.6754 0002842 174.8150 174.3368 14.96738950  5226
KUIPER-00057            
1 64517U 25134T   25285.06576666  .00018681  00000+0  24650-2 0  9994
2 64517  51.8946 168.8210 0009287 150.2089 209.9404 14.80040818 18084
KUIPER-00058            
1 64518U 25134U   25285.33335648 -.01287254  00000+0 -13174+0 0  9991
2 64518  51.8899 161.9897 0005901 177.4877 237.1680 14.93340398  5751
KUIPER-00059            
1 64519U 25134V   25285.33335648 -.00079154  00000+0 -53430-2 0  9991
2 64519  51.9003 158.4816 0002378 310.0300  39.6306 15.06451680  4754
KUIPER-00060            
1 64520U 25134W   25285.33335648 -.01045826  00000+0 -85399-1 0  9991
2 64520  51.8887 158.7241 0002308 171.1530 307.6988 15.01907490  1799
